KUIPER-00062            
1 64522U 25134Y   26185.93231606  .00002944  00000+0  41493-3 0  9998
2 64522  51.8961  72.1318 0000722 110.1607 249.9433 14.79936178 57472
KUIPER-00063            
1 64523U 25134Z   26185.85670347  .00001713  00000+0  25363-3 0  9990
2 64523  51.9010  80.0148 0000990 107.1657 252.9414 14.79930011 57356
KUIPER-00064            
1 64524U 25134AA  26186.06198194  .00002721  00000+0  38583-3 0  9998
2 64524  51.9027  76.5335 0000943  83.1251 276.9818 14.79934439 57424
KUIPER-00065            
1 64525U 25134AB  26185.92154628  .00001844  00000+0  27089-3 0  9991
2 64525  51.9025  82.3207 0000893 120.9564 239.1487 14.79931490 57312
KUIPER-00066            
1 64526U 25134AC  26185.95516770  .00004166  00000+0  57507-3 0  9993
2 64526  51.9016  19.4537 0000648 105.2952 254.8082 14.79934712 58210
KUIPER-00069            
1 64816U 25151A   26186.01345564  .00000924  00000+0  15027-3 0  9992
2 64816  51.9000 121.8370 0000877  97.6228 262.4834 14.79928719 54139
KUIPER-00070            
1 64817U 25151B   26186.08777168  .00003028  00000+0  42599-3 0  9991
2 64817  51.8973 146.4202 0000727  82.4079 277.6966 14.79930769 53800
KUIPER-00071            
1 64818U 25151C   26186.29299467  .00005275  00000+0  72076-3 0  9995
2 64818  51.8999 143.0501 0000771  92.7025 267.4025 14.79910600 52688
KUIPER-00072            
1 64819U 25151D   26186.01069730  .00006070  00000+0  82490-3 0  9999
2 64819  51.8965 124.2462 0000759  62.8229 297.2811 14.79914832 52921
KUIPER-00073            
1 64820U 25151E   26186.25927849  .00003035  00000+0  42717-3 0  9997
2 64820  51.9000 143.1848 0001108  84.8993 275.2095 14.79916212 53861
KUIPER-00074            
1 64821U 25151F   26186.58336806  .00212620  29031-4  50763-3 0  9993
2 64821  51.8787  48.6537 0001949 169.9739  38.7583 15.96182867  5977
KUIPER-00075            
1 64822U 25151G   26186.49463417  .00070986  00000+0  14649-2 0  9992
2 64822  51.8683   6.8841 0003272 340.6714  19.4151 15.45213183 54598
KUIPER-00076            
1 64823U 25151H   26186.27008249  .00006269  00000+0  85038-3 0  9991
2 64823  51.9000 133.1558 0000776  80.0911 280.0139 14.79944282 52825
KUIPER-00077            
1 64824U 25151J   26186.26469299  .00005686  00000+0  77416-3 0  9990
2 64824  51.8999 138.1975 0000743  88.3492 271.7555 14.79936748 52758
KUIPER-00078            
1 64825U 25151K   26186.30114570  .00005593  00000+0  76195-3 0  9995
2 64825  51.8995 135.5148 0000770  90.3493 269.7558 14.79935867 52797
KUIPER-00079            
1 64826U 25151L   26186.12692850  .00005345  00000+0  72952-3 0  9990
2 64826  51.8983 141.2478 0000685  84.9797 275.1244 14.79933523 53898
