{"fetched_at":"2026-07-06T08:46:35.713Z","source":"https://celestrak.org/NORAD/elements/gp.php?GROUP=kuiper&FORMAT=JSON","constellation":"kuiper","records":[{"OBJECT_NAME":"KUIPER-00062","OBJECT_ID":"2025-134Y","EPOCH":"2026-07-04T22:22:32.106720","CLASSIFICATION_TYPE":"U","MEAN_MOTION":14.79936178,"ECCENTRICITY":0.0000723,"INCLINATION":51.8961,"RA_OF_ASC_NODE":72.1318,"ARG_OF_PERICENTER":110.1607,"MEAN_ANOMALY":249.9433,"EPHEMERIS_TYPE":0,"NORAD_CAT_ID":64522,"ELEMENT_SET_NO":999,"REV_AT_EPOCH":5747,"BSTAR":0.00041493,"MEAN_MOTION_DOT":0.00002944,"MEAN_MOTION_DDOT":0},{"OBJECT_NAME":"KUIPER-00063","OBJECT_ID":"2025-134Z","EPOCH":"2026-07-04T20:33:39.178944","CLASSIFICATION_TYPE":"U","MEAN_MOTION":14.79930011,"ECCENTRICITY":0.000099,"INCLINATION":51.901,"RA_OF_ASC_NODE":80.0148,"ARG_OF_PERICENTER":107.1657,"MEAN_ANOMALY":252.9414,"EPHEMERIS_TYPE":0,"NORAD_CAT_ID":64523,"ELEMENT_SET_NO":999,"REV_AT_EPOCH":5735,"BSTAR":0.00025363,"MEAN_MOTION_DOT":0.00001713,"MEAN_MOTION_DDOT":0},{"OBJECT_NAME":"KUIPER-00064","OBJECT_ID":"2025-134AA","EPOCH":"2026-07-05T01:29:15.238752","CLASSIFICATION_TYPE":"U","MEAN_MOTION":14.79934439,"ECCENTRICITY":0.0000944,"INCLINATION":51.9027,"RA_OF_ASC_NODE":76.5335,"ARG_OF_PERICENTER":83.1251,"MEAN_ANOMALY":276.9818,"EPHEMERIS_TYPE":0,"NORAD_CAT_ID":64524,"ELEMENT_SET_NO":999,"REV_AT_EPOCH":5742,"BSTAR":0.00038583,"MEAN_MOTION_DOT":0.00002721,"MEAN_MOTION_DDOT":0},{"OBJECT_NAME":"KUIPER-00065","OBJECT_ID":"2025-134AB","EPOCH":"2026-07-04T22:07:01.597728","CLASSIFICATION_TYPE":"U","MEAN_MOTION":14.7993149,"ECCENTRICITY":0.0000894,"INCLINATION":51.9025,"RA_OF_ASC_NODE":82.3207,"ARG_OF_PERICENTER":120.9564,"MEAN_ANOMALY":239.1487,"EPHEMERIS_TYPE":0,"NORAD_CAT_ID":64525,"ELEMENT_SET_NO":999,"REV_AT_EPOCH":5731,"BSTAR":0.00027089,"MEAN_MOTION_DOT":0.00001844,"MEAN_MOTION_DDOT":0},{"OBJECT_NAME":"KUIPER-00066","OBJECT_ID":"2025-134AC","EPOCH":"2026-07-04T22:55:26.489280","CLASSIFICATION_TYPE":"U","MEAN_MOTION":14.79934712,"ECCENTRICITY":0.0000649,"INCLINATION":51.9016,"RA_OF_ASC_NODE":19.4537,"ARG_OF_PERICENTER":105.2952,"MEAN_ANOMALY":254.8082,"EPHEMERIS_TYPE":0,"NORAD_CAT_ID":64526,"ELEMENT_SET_NO":999,"REV_AT_EPOCH":5821,"BSTAR":0.00057507,"MEAN_MOTION_DOT":0.00004166,"MEAN_MOTION_DDOT":0},{"OBJECT_NAME":"KUIPER-00069","OBJECT_ID":"2025-151A","EPOCH":"2026-07-05T00:19:22.567296","CLASSIFICATION_TYPE":"U","MEAN_MOTION":14.79928719,"ECCENTRICITY":0.0000877,"INCLINATION":51.9,"RA_OF_ASC_NODE":121.837,"ARG_OF_PERICENTER":97.6228,"MEAN_ANOMALY":262.4834,"EPHEMERIS_TYPE":0,"NORAD_CAT_ID":64816,"ELEMENT_SET_NO":999,"REV_AT_EPOCH":5413,"BSTAR":0.00015027,"MEAN_MOTION_DOT":0.00000924,"MEAN_MOTION_DDOT":0},{"OBJECT_NAME":"KUIPER-00070","OBJECT_ID":"2025-151B","EPOCH":"2026-07-05T02:06:23.473152","CLASSIFICATION_TYPE":"U","MEAN_MOTION":14.79930769,"ECCENTRICITY":0.0000728,"INCLINATION":51.8973,"RA_OF_ASC_NODE":146.4202,"ARG_OF_PERICENTER":82.4079,"MEAN_ANOMALY":277.6966,"EPHEMERIS_TYPE":0,"NORAD_CAT_ID":64817,"ELEMENT_SET_NO":999,"REV_AT_EPOCH":5380,"BSTAR":0.00042599,"MEAN_MOTION_DOT":0.00003028,"MEAN_MOTION_DDOT":0},{"OBJECT_NAME":"KUIPER-00071","OBJECT_ID":"2025-151C","EPOCH":"2026-07-05T07:01:54.738624","CLASSIFICATION_TYPE":"U","MEAN_MOTION":14.79910599,"ECCENTRICITY":0.0000772,"INCLINATION":51.8999,"RA_OF_ASC_NODE":143.0501,"ARG_OF_PERICENTER":92.7025,"MEAN_ANOMALY":267.4025,"EPHEMERIS_TYPE":0,"NORAD_CAT_ID":64818,"ELEMENT_SET_NO":999,"REV_AT_EPOCH":5268,"BSTAR":0.00072076,"MEAN_MOTION_DOT":0.00005275,"MEAN_MOTION_DDOT":0},{"OBJECT_NAME":"KUIPER-00072","OBJECT_ID":"2025-151D","EPOCH":"2026-07-05T00:15:24.245856","CLASSIFICATION_TYPE":"U","MEAN_MOTION":14.79914832,"ECCENTRICITY":0.000076,"INCLINATION":51.8965,"RA_OF_ASC_NODE":124.2462,"ARG_OF_PERICENTER":62.8229,"MEAN_ANOMALY":297.2811,"EPHEMERIS_TYPE":0,"NORAD_CAT_ID":64819,"ELEMENT_SET_NO":999,"REV_AT_EPOCH":5292,"BSTAR":0.0008249,"MEAN_MOTION_DOT":0.0000607,"MEAN_MOTION_DDOT":0},{"OBJECT_NAME":"KUIPER-00073","OBJECT_ID":"2025-151E","EPOCH":"2026-07-05T06:13:21.660672","CLASSIFICATION_TYPE":"U","MEAN_MOTION":14.79916212,"ECCENTRICITY":0.0001108,"INCLINATION":51.9,"RA_OF_ASC_NODE":143.1848,"ARG_OF_PERICENTER":84.8993,"MEAN_ANOMALY":275.2095,"EPHEMERIS_TYPE":0,"NORAD_CAT_ID":64820,"ELEMENT_SET_NO":999,"REV_AT_EPOCH":5386,"BSTAR":0.00042717,"MEAN_MOTION_DOT":0.00003035,"MEAN_MOTION_DDOT":0},{"OBJECT_NAME":"KUIPER-00074","OBJECT_ID":"2025-151F","EPOCH":"2026-07-05T14:00:03.000384","CLASSIFICATION_TYPE":"U","MEAN_MOTION":15.96182867,"ECCENTRICITY":0.00019498,"INCLINATION":51.8787,"RA_OF_ASC_NODE":48.6537,"ARG_OF_PERICENTER":169.9739,"MEAN_ANOMALY":38.7583,"EPHEMERIS_TYPE":0,"NORAD_CAT_ID":64821,"ELEMENT_SET_NO":999,"REV_AT_EPOCH":597,"BSTAR":0.00050763072,"MEAN_MOTION_DOT":0.0021262,"MEAN_MOTION_DDOT":0.000029031053},{"OBJECT_NAME":"KUIPER-00075","OBJECT_ID":"2025-151G","EPOCH":"2026-07-05T11:52:16.392288","CLASSIFICATION_TYPE":"U","MEAN_MOTION":15.45213183,"ECCENTRICITY":0.0003273,"INCLINATION":51.8683,"RA_OF_ASC_NODE":6.8841,"ARG_OF_PERICENTER":340.6714,"MEAN_ANOMALY":19.4151,"EPHEMERIS_TYPE":0,"NORAD_CAT_ID":64822,"ELEMENT_SET_NO":999,"REV_AT_EPOCH":5459,"BSTAR":0.0014649,"MEAN_MOTION_DOT":0.00070986,"MEAN_MOTION_DDOT":0},{"OBJECT_NAME":"KUIPER-00076","OBJECT_ID":"2025-151H","EPOCH":"2026-07-05T06:28:55.127136","CLASSIFICATION_TYPE":"U","MEAN_MOTION":14.79944282,"ECCENTRICITY":0.0000776,"INCLINATION":51.9,"RA_OF_ASC_NODE":133.1558,"ARG_OF_PERICENTER":80.0911,"MEAN_ANOMALY":280.0139,"EPHEMERIS_TYPE":0,"NORAD_CAT_ID":64823,"ELEMENT_SET_NO":999,"REV_AT_EPOCH":5282,"BSTAR":0.00085038,"MEAN_MOTION_DOT":0.00006269,"MEAN_MOTION_DDOT":0},{"OBJECT_NAME":"KUIPER-00077","OBJECT_ID":"2025-151J","EPOCH":"2026-07-05T06:21:09.474336","CLASSIFICATION_TYPE":"U","MEAN_MOTION":14.79936748,"ECCENTRICITY":0.0000744,"INCLINATION":51.8999,"RA_OF_ASC_NODE":138.1975,"ARG_OF_PERICENTER":88.3492,"MEAN_ANOMALY":271.7555,"EPHEMERIS_TYPE":0,"NORAD_CAT_ID":64824,"ELEMENT_SET_NO":999,"REV_AT_EPOCH":5275,"BSTAR":0.00077416,"MEAN_MOTION_DOT":0.00005686,"MEAN_MOTION_DDOT":0},{"OBJECT_NAME":"KUIPER-00078","OBJECT_ID":"2025-151K","EPOCH":"2026-07-05T07:13:38.987616","CLASSIFICATION_TYPE":"U","MEAN_MOTION":14.79935867,"ECCENTRICITY":0.0000771,"INCLINATION":51.8995,"RA_OF_ASC_NODE":135.5148,"ARG_OF_PERICENTER":90.3493,"MEAN_ANOMALY":269.7558,"EPHEMERIS_TYPE":0,"NORAD_CAT_ID":64825,"ELEMENT_SET_NO":999,"REV_AT_EPOCH":5279,"BSTAR":0.00076195,"MEAN_MOTION_DOT":0.00005593,"MEAN_MOTION_DDOT":0},{"OBJECT_NAME":"KUIPER-00079","OBJECT_ID":"2025-151L","EPOCH":"2026-07-05T03:02:46.622400","CLASSIFICATION_TYPE":"U","MEAN_MOTION":14.79933523,"ECCENTRICITY":0.0000686,"INCLINATION":51.8983,"RA_OF_ASC_NODE":141.2478,"ARG_OF_PERICENTER":84.9797,"MEAN_ANOMALY":275.1244,"EPHEMERIS_TYPE":0,"NORAD_CAT_ID":64826,"ELEMENT_SET_NO":999,"REV_AT_EPOCH":5389,"BSTAR":0.00072952,"MEAN_MOTION_DOT":0.00005345,"MEAN_MOTION_DDOT":0}]}
